QZS-1R                  
1 49336U 21096A   24183.80273453 -.00000308  00000+0  00000+0 0  9993
2 49336  35.9733  90.3066 0757030 271.7906 340.4917  1.00253600  9829
